{
  "norad_id": 67868,
  "name": "STARLINK-36762",
  "history": [
    {
      "epoch": "2026-03-28T22:00:01.999584Z",
      "apogee_km": 407.69323354740663,
      "perigee_km": 405.8340350755934,
      "latitude_deg": -51.547351486196234,
      "longitude_deg": -110.59615922697938,
      "height_km": 425.53524151853503,
      "semi_major_axis_km": 6784.9006343115,
      "eccentricity": 0.00013701,
      "inclination_deg": 53.1596,
      "raan_deg": 115.497,
      "arg_perigee_deg": 95.0395,
      "mean_anomaly_deg": 187.4618,
      "mean_motion_rev_day": 15.53415107
    },
    {
      "epoch": "2026-03-29T04:00:01.999584Z",
      "apogee_km": 410.8833026081147,
      "perigee_km": 408.67994422295396,
      "latitude_deg": -44.576752205257215,
      "longitude_deg": 94.94114980663623,
      "height_km": 425.8028988346604,
      "semi_major_axis_km": 6787.918623415534,
      "eccentricity": 0.0001623,
      "inclination_deg": 53.1598,
      "raan_deg": 114.2953,
      "arg_perigee_deg": 88.9217,
      "mean_anomaly_deg": 151.9919,
      "mean_motion_rev_day": 15.52379222
    },
    {
      "epoch": "2026-03-30T04:00:01.999584Z",
      "apogee_km": 419.27966915114393,
      "perigee_km": 417.1456153634763,
      "latitude_deg": 46.95283485193636,
      "longitude_deg": -85.15864857528666,
      "height_km": 422.2845544541827,
      "semi_major_axis_km": 6796.34964225731,
      "eccentricity": 0.000157,
      "inclination_deg": 53.1588,
      "raan_deg": 109.5061,
      "arg_perigee_deg": 76.8691,
      "mean_anomaly_deg": 348.7745,
      "mean_motion_rev_day": 15.49491478
    },
    {
      "epoch": "2026-03-30T06:00:02.000160Z",
      "apogee_km": 420.42701580905214,
      "perigee_km": 418.0306724543616,
      "latitude_deg": 7.380915028931118,
      "longitude_deg": 5.917296668441741,
      "height_km": 419.57063432177546,
      "semi_major_axis_km": 6797.365844131707,
      "eccentricity": 0.00017627,
      "inclination_deg": 53.159,
      "raan_deg": 109.1084,
      "arg_perigee_deg": 76.2969,
      "mean_anomaly_deg": 94.4028,
      "mean_motion_rev_day": 15.49144019
    },
    {
      "epoch": "2026-03-30T14:00:03.000384Z",
      "apogee_km": 424.51351855600205,
      "perigee_km": 422.3235537044793,
      "latitude_deg": -37.98190547736731,
      "longitude_deg": -74.89638202675052,
      "height_km": 436.7384671173157,
      "semi_major_axis_km": 6801.55553613024,
      "eccentricity": 0.00016099,
      "inclination_deg": 53.1588,
      "raan_deg": 107.5174,
      "arg_perigee_deg": 76.0284,
      "mean_anomaly_deg": 153.9055,
      "mean_motion_rev_day": 15.47712853
    },
    {
      "epoch": "2026-03-30T22:00:00.999936Z",
      "apogee_km": 428.6049044055935,
      "perigee_km": 426.5992530990852,
      "latitude_deg": -50.006494656013466,
      "longitude_deg": -115.01853254637611,
      "height_km": 445.77271250732815,
      "semi_major_axis_km": 6805.739078752339,
      "eccentricity": 0.00014735,
      "inclination_deg": 53.1588,
      "raan_deg": 105.9267,
      "arg_perigee_deg": 84.455,
      "mean_anomaly_deg": 202.8293,
      "mean_motion_rev_day": 15.46285985
    },
    {
      "epoch": "2026-03-31T20:00:01.999008Z",
      "apogee_km": 439.71193432882865,
      "perigee_km": 438.16991130268707,
      "latitude_deg": -10.749050092682989,
      "longitude_deg": -35.768869388654316,
      "height_km": 442.04951096620107,
      "semi_major_axis_km": 6817.077922815757,
      "eccentricity": 0.0001131,
      "inclination_deg": 53.1596,
      "raan_deg": 101.5755,
      "arg_perigee_deg": 90.9967,
      "mean_anomaly_deg": 255.7188,
      "mean_motion_rev_day": 15.42429684
    },
    {
      "epoch": "2026-04-01T20:00:01.999008Z",
      "apogee_km": 452.2383446963531,
      "perigee_km": 450.25236030824453,
      "latitude_deg": 34.466437075883874,
      "longitude_deg": 115.91181685714963,
      "height_km": 453.1278697732509,
      "semi_major_axis_km": 6829.382352502298,
      "eccentricity": 0.0001454,
      "inclination_deg": 53.1676,
      "raan_deg": 96.8587,
      "arg_perigee_deg": 82.0916,
      "mean_anomaly_deg": 53.0613,
      "mean_motion_rev_day": 15.38263092
    },
    {
      "epoch": "2026-04-02T20:00:01.999008Z",
      "apogee_km": 463.8215546279898,
      "perigee_km": 462.5777996200886,
      "latitude_deg": -53.2834452767071,
      "longitude_deg": -131.6511039988124,
      "height_km": 482.33723304568616,
      "semi_major_axis_km": 6841.336677124039,
      "eccentricity": 9.09e-05,
      "inclination_deg": 53.1604,
      "raan_deg": 92.1715,
      "arg_perigee_deg": 101.283,
      "mean_anomaly_deg": 167.1286,
      "mean_motion_rev_day": 15.34232989
    },
    {
      "epoch": "2026-04-02T22:00:01.999584Z",
      "apogee_km": 464.34958069465574,
      "perigee_km": 462.6490235753963,
      "latitude_deg": 6.957474921595658,
      "longitude_deg": -64.26789050484626,
      "height_km": 463.44559806991685,
      "semi_major_axis_km": 6841.636302135025,
      "eccentricity": 0.00012428,
      "inclination_deg": 53.1593,
      "raan_deg": 91.7824,
      "arg_perigee_deg": 76.7019,
      "mean_anomaly_deg": 292.063,
      "mean_motion_rev_day": 15.34132204
    },
    {
      "epoch": "2026-04-03T20:00:01.999008Z",
      "apogee_km": 473.94019701584875,
      "perigee_km": 471.83556217283694,
      "latitude_deg": 21.49858222904681,
      "longitude_deg": -27.592553877848925,
      "height_km": 473.0124585922681,
      "semi_major_axis_km": 6851.024879594343,
      "eccentricity": 0.0001536,
      "inclination_deg": 53.1597,
      "raan_deg": 87.5125,
      "arg_perigee_deg": 90.3226,
      "mean_anomaly_deg": 296.8798,
      "mean_motion_rev_day": 15.30979745
    },
    {
      "epoch": "2026-04-04T20:00:01.999008Z",
      "apogee_km": 473.8297518706013,
      "perigee_km": 471.8881796139103,
      "latitude_deg": 29.617834165225677,
      "longitude_deg": 104.64711726416755,
      "height_km": 473.87471308866895,
      "semi_major_axis_km": 6850.995965742256,
      "eccentricity": 0.0001417,
      "inclination_deg": 53.1594,
      "raan_deg": 82.8625,
      "arg_perigee_deg": 91.7706,
      "mean_anomaly_deg": 50.207,
      "mean_motion_rev_day": 15.30989437
    }
  ]
}